{"code":200,"msg":"请求成功","data":[{"city_code":"1","city_name":"1","area_code":"1","area_name":"江口县","street_code":null,"street_name":null,"area":null,"points":null,"style":null,"panelUrl":null,"x":"3700","y":"100","scale":null,"state":"1"},{"city_code":"1","city_name":"1","area_code":"1","area_name":"石阡县","street_code":null,"street_name":null,"area":null,"points":null,"style":null,"panelUrl":null,"x":"2800","y":"300","scale":null,"state":"1"},{"city_code":"1","city_name":"1","area_code":"1","area_name":"思南县","street_code":null,"street_name":null,"area":null,"points":null,"style":null,"panelUrl":null,"x":"3200","y":"-400","scale":null,"state":"2"},{"city_code":"1","city_name":"1","area_code":"1","area_name":"德江县","street_code":null,"street_name":null,"area":null,"points":null,"style":null,"panelUrl":null,"x":"3300","y":"-1000","scale":null,"state":"1"},{"city_code":"1","city_name":"1","area_code":"1","area_name":"玉屏县","street_code":null,"street_name":null,"area":null,"points":null,"style":null,"panelUrl":null,"x":"4000","y":"900","scale":null,"state":"1"},{"city_code":"1","city_name":"1","area_code":"1","area_name":"印江县","street_code":null,"street_name":null,"area":null,"points":null,"style":null,"panelUrl":null,"x":"3700","y":"-500","scale":null,"state":"1"},{"city_code":"1","city_name":"1","area_code":"1","area_name":"沿河县","street_code":null,"street_name":null,"area":null,"points":null,"style":null,"panelUrl":null,"x":"3800","y":"-1400","scale":null,"state":"1"},{"city_code":"1","city_name":"1","area_code":"1","area_name":"松桃县","street_code":null,"street_name":null,"area":null,"points":null,"style":null,"panelUrl":null,"x":"4800","y":"-600","scale":null,"state":"2"},{"city_code":"1","city_name":"1","area_code":"1","area_name":"盘州市","street_code":null,"street_name":null,"area":null,"points":null,"style":null,"panelUrl":null,"x":"-3100","y":"1900","scale":null,"state":"1"},{"city_code":"1","city_name":"1","area_code":"1","area_name":"普定县","street_code":null,"street_name":null,"area":null,"points":null,"style":null,"panelUrl":null,"x":"-1100","y":"1350","scale":null,"state":"1"},{"city_code":"1","city_name":"1","area_code":"1","area_name":"镇宁县","street_code":null,"street_name":null,"area":null,"points":null,"style":null,"panelUrl":null,"x":"-1000","y":"1900","scale":null,"state":"1"},{"city_code":"1","city_name":"1","area_code":"1","area_name":"关岭县","street_code":null,"street_name":null,"area":null,"points":null,"style":null,"panelUrl":null,"x":"-1600","y":"2200","scale":null,"state":"2"},{"city_code":"1","city_name":"1","area_code":"1","area_name":"紫云县","street_code":null,"street_name":null,"area":null,"points":null,"style":null,"panelUrl":null,"x":"-950","y":"2700","scale":null,"state":"1"},{"city_code":"1","city_name":"1","area_code":"1","area_name":"兴义市","street_code":null,"street_name":null,"area":null,"points":null,"style":null,"panelUrl":null,"x":"-2800","y":"2900","scale":null,"state":"1"},{"city_code":"1","city_name":"1","area_code":"1","area_name":"兴仁市","street_code":null,"street_name":null,"area":null,"points":null,"style":null,"panelUrl":null,"x":"-2300","y":"2500","scale":null,"state":"1"},{"city_code":"1","city_name":"1","area_code":"1","area_name":"普安县","street_code":null,"street_name":null,"area":null,"points":null,"style":null,"panelUrl":null,"x":"-2500","y":"1900","scale":null,"state":"1"},{"city_code":"1","city_name":"1","area_code":"1","area_name":"晴隆县","street_code":null,"street_name":null,"area":null,"points":null,"style":null,"panelUrl":null,"x":"-2200","y":"2150","scale":null,"state":"1"},{"city_code":"1","city_name":"1","area_code":"1","area_name":"贞丰县","street_code":null,"street_name":null,"area":null,"points":null,"style":null,"panelUrl":null,"x":"-1700","y":"2800","scale":null,"state":"1"},{"city_code":"1","city_name":"1","area_code":"1","area_name":"望谟县","street_code":null,"street_name":null,"area":null,"points":null,"style":null,"panelUrl":null,"x":"-900","y":"3700","scale":null,"state":"1"},{"city_code":"1","city_name":"1","area_code":"1","area_name":"册亨县","street_code":null,"street_name":null,"area":null,"points":null,"style":null,"panelUrl":null,"x":"-1700","y":"3800","scale":null,"state":"1"},{"city_code":"1","city_name":"1","area_code":"1","area_name":"安龙县","street_code":null,"street_name":null,"area":null,"points":null,"style":null,"panelUrl":null,"x":"-2250","y":"3400","scale":null,"state":"1"},{"city_code":"1","city_name":"1","area_code":"1","area_name":"赤水市","street_code":null,"street_name":null,"area":null,"points":null,"style":null,"panelUrl":null,"x":"100","y":"-2200","scale":null,"state":"1"},{"city_code":"1","city_name":"1","area_code":"1","area_name":"仁怀市","street_code":null,"street_name":null,"area":null,"points":null,"style":null,"panelUrl":null,"x":"600","y":"-800","scale":null,"state":"1"},{"city_code":"1","city_name":"1","area_code":"1","area_name":"桐梓县","street_code":null,"street_name":null,"area":null,"points":null,"style":null,"panelUrl":null,"x":"1200","y":"-1400","scale":null,"state":"1"},{"city_code":"1","city_name":"1","area_code":"1","area_name":"绥阳县","street_code":null,"street_name":null,"area":null,"points":null,"style":null,"panelUrl":null,"x":"1800","y":"-1000","scale":null,"state":"1"},{"city_code":"1","city_name":"1","area_code":"1","area_name":"正安县","street_code":null,"street_name":null,"area":null,"points":null,"style":null,"panelUrl":null,"x":"2000","y":"-1700","scale":null,"state":"1"},{"city_code":"1","city_name":"1","area_code":"1","area_name":"凤冈县","street_code":null,"street_name":null,"area":null,"points":null,"style":null,"panelUrl":null,"x":"2600","y":"-600","scale":null,"state":"1"},{"city_code":"1","city_name":"1","area_code":"1","area_name":"湄潭县","street_code":null,"street_name":null,"area":null,"points":null,"style":null,"panelUrl":null,"x":"2000","y":"-100","scale":null,"state":"1"},{"city_code":"1","city_name":"1","area_code":"1","area_name":"余庆县","street_code":null,"street_name":null,"area":null,"points":null,"style":null,"panelUrl":null,"x":"2100","y":"350","scale":null,"state":"3"},{"city_code":"1","city_name":"1","area_code":"1","area_name":"习水县","street_code":null,"street_name":null,"area":null,"points":null,"style":null,"panelUrl":null,"x":"600","y":"-1900","scale":null,"state":"2"},{"city_code":"1","city_name":"1","area_code":"1","area_name":"道真县","street_code":null,"street_name":null,"area":null,"points":null,"style":null,"panelUrl":null,"x":"2800","y":"-2100","scale":null,"state":"1"},{"city_code":"1","city_name":"1","area_code":"1","area_name":"务川县","street_code":null,"street_name":null,"area":null,"points":null,"style":null,"panelUrl":null,"x":"2600","y":"-1400","scale":null,"state":"1"},{"city_code":"1","city_name":"1","area_code":"1","area_name":"凯里市","street_code":null,"street_name":null,"area":null,"points":null,"style":null,"panelUrl":null,"x":"2450","y":"1750","scale":null,"state":"1"},{"city_code":"1","city_name":"1","area_code":"1","area_name":"黄平县","street_code":null,"street_name":null,"area":null,"points":null,"style":null,"panelUrl":null,"x":"2500","y":"1100","scale":null,"state":"1"},{"city_code":"1","city_name":"1","area_code":"1","area_name":"施秉县","street_code":null,"street_name":null,"area":null,"points":null,"style":null,"panelUrl":null,"x":"2800","y":"800","scale":null,"state":"1"},{"city_code":"1","city_name":"1","area_code":"1","area_name":"三穗县","street_code":null,"street_name":null,"area":null,"points":null,"style":null,"panelUrl":null,"x":"3500","y":"1200","scale":null,"state":"1"},{"city_code":"1","city_name":"1","area_code":"1","area_name":"镇远县","street_code":null,"street_name":null,"area":null,"points":null,"style":null,"panelUrl":null,"x":"3200","y":"800","scale":null,"state":"1"},{"city_code":"1","city_name":"1","area_code":"1","area_name":"岑巩县","street_code":null,"street_name":null,"area":null,"points":null,"style":null,"panelUrl":null,"x":"3800","y":"700","scale":null,"state":"1"},{"city_code":"1","city_name":"1","area_code":"1","area_name":"天柱县","street_code":null,"street_name":null,"area":null,"points":null,"style":null,"panelUrl":null,"x":"4300","y":"1600","scale":null,"state":"1"},{"city_code":"1","city_name":"1","area_code":"1","area_name":"锦屏县","street_code":null,"street_name":null,"area":null,"points":null,"style":null,"panelUrl":null,"x":"4250","y":"2300","scale":null,"state":"1"},{"city_code":"1","city_name":"1","area_code":"1","area_name":"剑河县","street_code":null,"street_name":null,"area":null,"points":null,"style":null,"panelUrl":null,"x":"3200","y":"1600","scale":null,"state":"1"},{"city_code":"1","city_name":"1","area_code":"1","area_name":"台江县","street_code":null,"street_name":null,"area":null,"points":null,"style":null,"panelUrl":null,"x":"2800","y":"1700","scale":null,"state":"1"},{"city_code":"1","city_name":"1","area_code":"1","area_name":"黎平县","street_code":null,"street_name":null,"area":null,"points":null,"style":null,"panelUrl":null,"x":"4000","y":"2800","scale":null,"state":"1"},{"city_code":"1","city_name":"1","area_code":"1","area_name":"榕江县","street_code":null,"street_name":null,"area":null,"points":null,"style":null,"panelUrl":null,"x":"2900","y":"3100","scale":null,"state":"1"},{"city_code":"1","city_name":"1","area_code":"1","area_name":"从江县","street_code":null,"street_name":null,"area":null,"points":null,"style":null,"panelUrl":null,"x":"3400","y":"3500","scale":null,"state":"1"},{"city_code":"1","city_name":"1","area_code":"1","area_name":"雷山县","street_code":null,"street_name":null,"area":null,"points":null,"style":null,"panelUrl":null,"x":"2500","y":"2200","scale":null,"state":"1"},{"city_code":"1","city_name":"1","area_code":"1","area_name":"麻江县","street_code":null,"street_name":null,"area":null,"points":null,"style":null,"panelUrl":null,"x":"1750","y":"1850","scale":null,"state":"1"},{"city_code":"1","city_name":"1","area_code":"1","area_name":"丹寨县","street_code":null,"street_name":null,"area":null,"points":null,"style":null,"panelUrl":null,"x":"2000","y":"2400","scale":null,"state":"1"},{"city_code":"1","city_name":"1","area_code":"1","area_name":"水城县","street_code":null,"street_name":null,"area":null,"points":null,"style":null,"panelUrl":null,"x":"-2500","y":"700","scale":null,"state":"1"},{"city_code":"1","city_name":"1","area_code":"1","area_name":"大方县","street_code":null,"street_name":null,"area":null,"points":null,"style":null,"panelUrl":null,"x":"-900","y":"-100","scale":null,"state":"1"},{"city_code":"1","city_name":"1","area_code":"1","area_name":"黔西县","street_code":null,"street_name":null,"area":null,"points":null,"style":null,"panelUrl":null,"x":"0","y":"300","scale":null,"state":"1"},{"city_code":"1","city_name":"1","area_code":"1","area_name":"金沙县","street_code":null,"street_name":null,"area":null,"points":null,"style":null,"panelUrl":null,"x":"-200","y":"-300","scale":null,"state":"3"},{"city_code":"1","city_name":"1","area_code":"1","area_name":"织金县","street_code":null,"street_name":null,"area":null,"points":null,"style":null,"panelUrl":null,"x":"-800","y":"1000","scale":null,"state":"1"},{"city_code":"1","city_name":"1","area_code":"1","area_name":"纳雍县","street_code":null,"street_name":null,"area":null,"points":null,"style":null,"panelUrl":null,"x":"-1400","y":"600","scale":null,"state":"1"},{"city_code":"1","city_name":"1","area_code":"1","area_name":"赫章县","street_code":null,"street_name":null,"area":null,"points":null,"style":null,"panelUrl":null,"x":"-2400","y":"-600","scale":null,"state":"2"},{"city_code":"1","city_name":"1","area_code":"1","area_name":"威宁县","street_code":null,"street_name":null,"area":null,"points":null,"style":null,"panelUrl":null,"x":"-3700","y":"-100","scale":null,"state":"1"},{"city_code":"1","city_name":"1","area_code":"1","area_name":"清镇市","street_code":null,"street_name":null,"area":null,"points":null,"style":null,"panelUrl":null,"x":"-180","y":"1100","scale":null,"state":"1"},{"city_code":"1","city_name":"1","area_code":"1","area_name":"开阳县","street_code":null,"street_name":null,"area":null,"points":null,"style":null,"panelUrl":null,"x":"1100","y":"800","scale":null,"state":"1"},{"city_code":"1","city_name":"1","area_code":"1","area_name":"息烽县","street_code":null,"street_name":null,"area":null,"points":null,"style":null,"panelUrl":null,"x":"600","y":"400","scale":null,"state":"1"},{"city_code":"1","city_name":"1","area_code":"1","area_name":"修文县","street_code":null,"street_name":null,"area":null,"points":null,"style":null,"panelUrl":null,"x":"350","y":"700","scale":null,"state":"2"},{"city_code":"1","city_name":"1","area_code":"1","area_name":"都匀市","street_code":null,"street_name":null,"area":null,"points":null,"style":null,"panelUrl":null,"x":"1500","y":"2250","scale":null,"state":"1"},{"city_code":"1","city_name":"1","area_code":"1","area_name":"福泉市","street_code":null,"street_name":null,"area":null,"points":null,"style":null,"panelUrl":null,"x":"1600","y":"1500","scale":null,"state":"1"},{"city_code":"1","city_name":"1","area_code":"1","area_name":"荔波县","street_code":null,"street_name":null,"area":null,"points":null,"style":null,"panelUrl":null,"x":"1900","y":"3800","scale":null,"state":"1"},{"city_code":"1","city_name":"1","area_code":"1","area_name":"贵定县","street_code":null,"street_name":null,"area":null,"points":null,"style":null,"panelUrl":null,"x":"1250","y":"1750","scale":null,"state":"1"},{"city_code":"1","city_name":"1","area_code":"1","area_name":"瓮安县","street_code":null,"street_name":null,"area":null,"points":null,"style":null,"panelUrl":null,"x":"1650","y":"700","scale":null,"state":"1"},{"city_code":"1","city_name":"1","area_code":"1","area_name":"独山县","street_code":null,"street_name":null,"area":null,"points":null,"style":null,"panelUrl":null,"x":"1550","y":"3200","scale":null,"state":"1"},{"city_code":"1","city_name":"1","area_code":"1","area_name":"平塘县","street_code":null,"street_name":null,"area":null,"points":null,"style":null,"panelUrl":null,"x":"900","y":"3100","scale":null,"state":"1"},{"city_code":"1","city_name":"1","area_code":"1","area_name":"罗甸县","street_code":null,"street_name":null,"area":null,"points":null,"style":null,"panelUrl":null,"x":"100","y":"3400","scale":null,"state":"1"},{"city_code":"1","city_name":"1","area_code":"1","area_name":"长顺县","street_code":null,"street_name":null,"area":null,"points":null,"style":null,"panelUrl":null,"x":"-200","y":"2350","scale":null,"state":"1"},{"city_code":"1","city_name":"1","area_code":"1","area_name":"龙里县","street_code":null,"street_name":null,"area":null,"points":null,"style":null,"panelUrl":null,"x":"800","y":"1800","scale":null,"state":"1"},{"city_code":"1","city_name":"1","area_code":"1","area_name":"惠水县","street_code":null,"street_name":null,"area":null,"points":null,"style":null,"panelUrl":null,"x":"450","y":"2200","scale":null,"state":"1"},{"city_code":"1","city_name":"1","area_code":"1","area_name":"三都县","street_code":null,"street_name":null,"area":null,"points":null,"style":null,"panelUrl":null,"x":"2100","y":"3100","scale":null,"state":"1"},{"city_code":"1","city_name":"1","area_code":"1","area_name":"万山区","street_code":null,"street_name":null,"area":null,"points":null,"style":null,"panelUrl":null,"x":"4450","y":"700","scale":null,"state":"2"},{"city_code":"1","city_name":"1","area_code":"1","area_name":"播州区","street_code":null,"street_name":null,"area":null,"points":null,"style":null,"panelUrl":null,"x":"1000","y":"-200","scale":null,"state":"2"}]}